{
  "type": "FeatureCollection",
  "features": [
    {
      "type": "Feature",
      "properties": {
        "norad_id": 66624,
        "name": "STARLINK-35927",
        "group": "last-30-days",
        "lat": -16.180082687704903,
        "lon": -146.1357617666645,
        "alt_km": 329.26969203734643,
        "timestamp": "2025-12-04T17:48:38.964751+00:00",
        "meta_object_name": "STARLINK-35927",
        "meta_object_id": "2025-271H",
        "meta_epoch": "2025-12-04T07:16:54.480576",
        "meta_mean_motion": 15.81910494,
        "meta_eccentricity": 0.00016208,
        "meta_inclination": 53.1573,
        "meta_ra_of_asc_node": 228.6322,
        "meta_arg_of_pericenter": 101.6107,
        "meta_mean_anomaly": 258.5098,
        "meta_ephemeris_type": 0,
        "meta_classification_type": "U",
        "meta_norad_cat_id": 66624,
        "meta_element_set_no": 999,
        "meta_rev_at_epoch": 288,
        "meta_bstar": -0.0017186993,
        "meta_mean_motion_dot": -0.00342988,
        "meta_mean_motion_ddot": 0,
        "tle_line1": "1 66624U 25271H   25338.30340834 -.00342988  00000+0 -17187-2 0  9998",
        "tle_line2": "2 66624  53.1573 228.6322 0001620 101.6107 258.5098 15.81910494  2887"
      },
      "geometry": {
        "type": "Point",
        "coordinates": [
          -146.1357617666645,
          -16.180082687704903
        ]
      }
    },
    {
      "type": "Feature",
      "properties": {
        "norad_id": 66625,
        "name": "STARLINK-35929",
        "group": "last-30-days",
        "lat": -13.154978860513001,
        "lon": -143.67160336110118,
        "alt_km": 327.28157166217716,
        "timestamp": "2025-12-04T17:48:38.964763+00:00",
        "meta_object_name": "STARLINK-35929",
        "meta_object_id": "2025-271J",
        "meta_epoch": "2025-12-04T07:15:46.674720",
        "meta_mean_motion": 15.81719286,
        "meta_eccentricity": 0.00046373,
        "meta_inclination": 53.157,
        "meta_ra_of_asc_node": 228.6265,
        "meta_arg_of_pericenter": 13.0688,
        "meta_mean_anomaly": 347.0455,
        "meta_ephemeris_type": 0,
        "meta_classification_type": "U",
        "meta_norad_cat_id": 66625,
        "meta_element_set_no": 999,
        "meta_rev_at_epoch": 288,
        "meta_bstar": -0.0037945008,
        "meta_mean_motion_dot": -0.00719346,
        "meta_mean_motion_ddot": 0,
        "tle_line1": "1 66625U 25271J   25338.30262355 -.00719346  00000+0 -37945-2 0  9990",
        "tle_line2": "2 66625  53.1570 228.6265 0004637  13.0688 347.0455 15.81719286  2889"
      },
      "geometry": {
        "type": "Point",
        "coordinates": [
          -143.67160336110118,
          -13.154978860513001
        ]
      }
    },
    {
      "type": "Feature",
      "properties": {
        "norad_id": 66626,
        "name": "STARLINK-35902",
        "group": "last-30-days",
        "lat": -10.429390612796826,
        "lon": -141.51864508139334,
        "alt_km": 327.321692923877,
        "timestamp": "2025-12-04T17:48:38.964773+00:00",
        "meta_object_name": "STARLINK-35902",
        "meta_object_id": "2025-271K",
        "meta_epoch": "2025-12-04T07:15:09.067392",
        "meta_mean_motion": 15.81999171,
        "meta_eccentricity": 0.0002043,
        "meta_inclination": 53.1567,
        "meta_ra_of_asc_node": 228.6237,
        "meta_arg_of_pericenter": 244.6282,
        "meta_mean_anomaly": 115.4529,
        "meta_ephemeris_type": 0,
        "meta_classification_type": "U",
        "meta_norad_cat_id": 66626,
        "meta_element_set_no": 999,
        "meta_rev_at_epoch": 288,
        "meta_bstar": -0.000204285,
        "meta_mean_motion_dot": -0.00042991,
        "meta_mean_motion_ddot": 0,
        "tle_line1": "1 66626U 25271K   25338.30218828 -.00042991  00000+0 -20429-3 0  9992",
        "tle_line2": "2 66626  53.1567 228.6237 0002043 244.6282 115.4529 15.81999171  2888"
      },
      "geometry": {
        "type": "Point",
        "coordinates": [
          -141.51864508139334,
          -10.429390612796826
        ]
      }
    },
    {
      "type": "Feature",
      "properties": {
        "norad_id": 66627,
        "name": "STARLINK-35904",
        "group": "last-30-days",
        "lat": -9.126311277797294,
        "lon": -140.5081165263631,
        "alt_km": 325.7701271138312,
        "timestamp": "2025-12-04T17:48:38.964783+00:00",
        "meta_object_name": "STARLINK-35904",
        "meta_object_id": "2025-271L",
        "meta_epoch": "2025-12-04T07:14:32.665344",
        "meta_mean_motion": 15.81754279,
        "meta_eccentricity": 0.00049774,
        "meta_inclination": 53.1565,
        "meta_ra_of_asc_node": 228.6202,
        "meta_arg_of_pericenter": 9.6313,
        "meta_mean_anomaly": 350.4805,
        "meta_ephemeris_type": 0,
        "meta_classification_type": "U",
        "meta_norad_cat_id": 66627,
        "meta_element_set_no": 999,
        "meta_rev_at_epoch": 284,
        "meta_bstar": -0.0026856011,
        "meta_mean_motion_dot": -0.00521766,
        "meta_mean_motion_ddot": 0,
        "tle_line1": "1 66627U 25271L   25338.30176696 -.00521766  00000+0 -26856-2 0  9990",
        "tle_line2": "2 66627  53.1565 228.6202 0004977   9.6313 350.4805 15.81754279  2843"
      },
      "geometry": {
        "type": "Point",
        "coordinates": [
          -140.5081165263631,
          -9.126311277797294
        ]
      }
    },
    {
      "type": "Feature",
      "properties": {
        "norad_id": 66628,
        "name": "STARLINK-35862",
        "group": "last-30-days",
        "lat": -6.725131996884681,
        "lon": -138.66891864023614,
        "alt_km": 325.06019008672956,
        "timestamp": "2025-12-04T17:48:38.964793+00:00",
        "meta_object_name": "STARLINK-35862",
        "meta_object_id": "2025-271M",
        "meta_epoch": "2025-12-04T07:13:58.388736",
        "meta_mean_motion": 15.8197509,
        "meta_eccentricity": 0.00023358,
        "meta_inclination": 53.1565,
        "meta_ra_of_asc_node": 228.6171,
        "meta_arg_of_pericenter": 333.1882,
        "meta_mean_anomaly": 26.902,
        "meta_ephemeris_type": 0,
        "meta_classification_type": "U",
        "meta_norad_cat_id": 66628,
        "meta_element_set_no": 999,
        "meta_rev_at_epoch": 288,
        "meta_bstar": 9.7657011e-05,
        "meta_mean_motion_dot": 0.0001962,
        "meta_mean_motion_ddot": 0,
        "tle_line1": "1 66628U 25271M   25338.30137024  .00019620  00000+0  97657-4 0  9991",
        "tle_line2": "2 66628  53.1565 228.6171 0002335 333.1882  26.9020 15.81975090  2885"
      },
      "geometry": {
        "type": "Point",
        "coordinates": [
          -138.66891864023614,
          -6.725131996884681
        ]
      }
    },
    {
      "type": "Feature",
      "properties": {
        "norad_id": 66629,
        "name": "STARLINK-35956",
        "group": "last-30-days",
        "lat": -4.991800376301291,
        "lon": -137.3555143171717,
        "alt_km": 328.1451982803346,
        "timestamp": "2025-12-04T17:48:38.964803+00:00",
        "meta_object_name": "STARLINK-35956",
        "meta_object_id": "2025-271N",
        "meta_epoch": "2025-12-04T07:13:22.143936",
        "meta_mean_motion": 15.81896535,
        "meta_eccentricity": 0.0003243,
        "meta_inclination": 53.1566,
        "meta_ra_of_asc_node": 228.6147,
        "meta_arg_of_pericenter": 228.6855,
        "meta_mean_anomaly": 131.3889,
        "meta_ephemeris_type": 0,
        "meta_classification_type": "U",
        "meta_norad_cat_id": 66629,
        "meta_element_set_no": 999,
        "meta_rev_at_epoch": 288,
        "meta_bstar": -0.00058905608,
        "meta_mean_motion_dot": -0.00120996,
        "meta_mean_motion_ddot": 0,
        "tle_line1": "1 66629U 25271N   25338.30095074 -.00120996  00000+0 -58906-3 0  9994",
        "tle_line2": "2 66629  53.1566 228.6147 0003243 228.6855 131.3889 15.81896535  2887"
      },
      "geometry": {
        "type": "Point",
        "coordinates": [
          -137.3555143171717,
          -4.991800376301291
        ]
      }
    },
    {
      "type": "Feature",
      "properties": {
        "norad_id": 66630,
        "name": "STARLINK-35949",
        "group": "last-30-days",
        "lat": -3.4127386706587948,
        "lon": -136.16905352410373,
        "alt_km": 328.7407058617282,
        "timestamp": "2025-12-04T17:48:38.964815+00:00",
        "meta_object_name": "STARLINK-35949",
        "meta_object_id": "2025-271P",
        "meta_epoch": "2025-12-04T04:10:50.194848",
        "meta_mean_motion": 15.82120498,
        "meta_eccentricity": 8.388e-05,
        "meta_inclination": 53.1563,
        "meta_ra_of_asc_node": 229.2447,
        "meta_arg_of_pericenter": 170.6966,
        "meta_mean_anomaly": 189.4073,
        "meta_ephemeris_type": 0,
        "meta_classification_type": "U",
        "meta_norad_cat_id": 66630,
        "meta_element_set_no": 999,
        "meta_rev_at_epoch": 286,
        "meta_bstar": -0.0035658701,
        "meta_mean_motion_dot": -0.00689961,
        "meta_mean_motion_ddot": 0,
        "tle_line1": "1 66630U 25271P   25338.17419207 -.00689961  00000+0 -35659-2 0  9990",
        "tle_line2": "2 66630  53.1563 229.2447 0000838 170.6966 189.4073 15.82120498  2868"
      },
      "geometry": {
        "type": "Point",
        "coordinates": [
          -136.16905352410373,
          -3.4127386706587948
        ]
      }
    }
  ]
}